STARLINK-33624          
1 63071U 25035V   26067.29301659  .00028577  00000+0  10441-2 0  9998
2 63071  42.9998 151.7103 0000846 237.5448 122.5322 15.27577311 59447
TEVEL2-1                
1 63217U 25052H   26068.64782323  .00020683  00000+0  70600-3 0  9994
2 63217  97.3991 324.7682 0004767 104.8919 255.2849 15.30341923 54855
