[{"OBJECT_NAME":"STARLINK-33624","OBJECT_ID":"2025-035V","EPOCH":"2026-03-08T07:01:56.633376","MEAN_MOTION":15.27577311,"ECCENTRICITY":8.465e-5,"INCLINATION":42.9998,"RA_OF_ASC_NODE":151.7103,"ARG_OF_PERICENTER":237.5448,"MEAN_ANOMALY":122.5322,"EPHEMERIS_TYPE":0,"CLASSIFICATION_TYPE":"U","NORAD_CAT_ID":63071,"ELEMENT_SET_NO":999,"REV_AT_EPOCH":5944,"BSTAR":0.0010440688,"MEAN_MOTION_DOT":0.00028577,"MEAN_MOTION_DDOT":0},{"OBJECT_NAME":"TEVEL2-1","OBJECT_ID":"2025-052H","EPOCH":"2026-03-09T15:32:51.927072","MEAN_MOTION":15.30341923,"ECCENTRICITY":0.0004767,"INCLINATION":97.3991,"RA_OF_ASC_NODE":324.7682,"ARG_OF_PERICENTER":104.8919,"MEAN_ANOMALY":255.2849,"EPHEMERIS_TYPE":0,"CLASSIFICATION_TYPE":"U","NORAD_CAT_ID":63217,"ELEMENT_SET_NO":999,"REV_AT_EPOCH":5485,"BSTAR":0.000706,"MEAN_MOTION_DOT":0.00020683,"MEAN_MOTION_DDOT":0}]
